OBJECT_NAME,OBJECT_ID,EPOCH,MEAN_MOTION,ECCENTRICITY,INCLINATION,RA_OF_ASC_NODE,ARG_OF_PERICENTER,MEAN_ANOMALY,EPHEMERIS_TYPE,CLASSIFICATION_TYPE,NORAD_CAT_ID,ELEMENT_SET_NO,REV_AT_EPOCH,BSTAR,MEAN_MOTION_DOT,MEAN_MOTION_DDOT
KUIPER-00570,2026-118E,2026-06-19T19:43:11.112960,15.34625283,.00112698,51.8585,40.8156,193.8876,166.1801,0,U,69271,999,438,-.46605187E-4,-.1976E-4,0
KUIPER-00572,2026-118F,2026-06-19T20:47:28.932576,15.37062020,.00070747,51.8674,40.3839,180.6803,179.4175,0,U,69272,999,439,.33635157E-3,.12025E-3,0
KUIPER-00581,2026-118G,2026-06-19T20:54:04.400064,15.36694476,.00087608,51.8656,40.4109,184.2666,175.8247,0,U,69273,999,448,.31084619E-3,.10952E-3,0
KUIPER-00584,2026-118H,2026-06-19T19:47:12.156000,15.34339080,.00108762,51.8614,40.8375,196.9304,163.1320,0,U,69274,999,438,-.18428601E-3,-.6611E-4,0
KUIPER-00587,2026-118J,2026-06-19T20:53:01.508640,15.36745956,.00081214,51.8628,40.4031,187.0043,173.0831,0,U,69275,999,439,.4522966E-3,.1615E-3,0
KUIPER-00590,2026-118K,2026-06-19T22:03:37.377504,15.37973379,.00040703,51.8691,39.9925,170.0481,190.0587,0,U,69276,999,440,.37389162E-3,.13819E-3,0
KUIPER-00592,2026-118L,2026-06-19T21:59:32.445600,15.38161317,.00034491,51.8716,39.9743,144.3631,215.7587,0,U,69277,999,440,.50164451E-3,.18803E-3,0
KUIPER-00593,2026-118M,2026-06-19T22:00:40.881312,15.38117356,.00036642,51.8720,39.9788,165.4907,194.6186,0,U,69278,999,446,.49657796E-3,.18582E-3,0
KUIPER-00594,2026-118N,2026-06-19T21:47:27.651552,15.38722313,.00008808,51.8726,39.9179,85.7629,274.3459,0,U,69279,999,440,.36865769E-3,.13962E-3,0
KUIPER-00595,2026-118P,2026-06-19T21:50:59.748864,15.38557196,.0001305,51.8719,39.9356,153.4438,206.6616,0,U,69280,999,443,.37272344E-3,.14043E-3,0
KUIPER-00596,2026-118Q,2026-06-19T19:43:55.985664,15.34767344,.00124369,51.8561,40.8141,194.2941,165.7694,0,U,69281,999,438,.50171472E-3,.16861E-3,0
KUIPER-00597,2026-118R,2026-06-19T20:45:01.808928,15.37080831,.00069667,51.8649,40.3708,181.5005,178.5962,0,U,69282,999,439,.34461659E-3,.12338E-3,0
KUIPER-00599,2026-118S,2026-06-19T22:13:39.995904,15.37386323,.00059301,51.8694,40.0374,175.8772,184.2264,0,U,69283,999,440,.55135619E-3,.20194E-3,0
KUIPER-00600,2026-118T,2026-06-19T20:51:57.970080,15.36718626,.00085748,51.8640,40.4007,182.1675,177.9276,0,U,69284,999,439,.33327047E-3,.1178E-3,0
KUIPER-00601,2026-118U,2026-06-19T22:07:55.731648,15.37665092,.00048355,51.8709,40.0120,164.9435,195.1697,0,U,69285,999,440,.18304126E-3,.6489E-4,0
KUIPER-00602,2026-118V,2026-06-19T21:58:04.100736,15.38249988,.00027612,51.8709,39.9680,156.6924,203.4189,0,U,69286,999,440,.51048195E-3,.19198E-3,0
KUIPER-00603,2026-118W,2026-06-19T22:09:57.076128,15.37638924,.00052908,51.8677,40.0205,171.4692,188.6386,0,U,69287,999,440,.47134893E-3,.17342E-3,0
KUIPER-00605,2026-118X,2026-06-19T20:45:55.666368,15.37101280,.00074024,51.8662,40.3758,177.2740,182.8288,0,U,69288,999,439,.35829653E-3,.12854E-3,0
KUIPER-00606,2026-118Y,2026-06-19T22:05:56.711328,15.37754559,.0004597,51.8700,40.0030,164.5240,195.5889,0,U,69289,999,440,.48729733E-3,.18011E-3,0
KUIPER-00607,2026-118Z,2026-06-19T22:11:59.103168,15.37498408,.00060053,51.8682,40.0297,172.0952,188.0131,0,U,69290,999,440,.35323945E-3,.12831E-3,0
KUIPER-00608,2026-118AA,2026-06-19T21:07:41.957472,15.35265300,.00083129,51.8610,40.4650,185.4061,174.6836,0,U,69291,999,439,.389056E-3,.13178E-3,0
KUIPER-00610,2026-118AB,2026-06-19T21:54:56.975616,15.38261301,.00020655,51.8729,39.9512,157.8085,202.2992,0,U,69292,999,440,.62755684E-3,.23714E-3,0
KUIPER-00613,2026-118AC,2026-06-19T19:42:14.037120,15.34370265,.00100176,51.8642,40.8201,191.8467,168.2284,0,U,69293,999,438,-.14948789E-4,-.89E-5,0
KUIPER-00618,2026-118AD,2026-06-19T21:48:12.668544,15.38709905,.00015824,51.8728,39.9196,98.9512,261.1654,0,U,69294,999,440,.38286216E-3,.1451E-3,0
KUIPER-00620,2026-118AE,2026-06-19T21:53:54.462624,15.38379028,.00026302,51.8723,39.9473,130.0481,230.0737,0,U,69295,999,440,.51444691E-3,.19433E-3,0
STARLINK-37501,2026-119A,2026-06-19T22:00:01.999584,15.49473052,.00021728,97.2855,196.7719,78.3570,219.3632,0,U,69296,999,432,-.91241185E-2,-.47248E-2,0
STARLINK-37496,2026-119B,2026-06-19T22:00:01.999584,15.52896731,.00013988,97.2857,196.7769,67.6690,231.3124,0,U,69297,999,432,-.1571948E-1,-.887599E-2,0
STARLINK-37519,2026-119C,2026-06-19T22:00:01.999584,15.49102795,.00016988,97.2856,196.7788,56.6867,257.0683,0,U,69298,999,432,.16976494E-2,.93059E-3,0
STARLINK-37455,2026-119D,2026-06-19T22:00:01.999584,15.49128383,.00016532,97.2855,196.6892,90.0249,11.7232,0,U,69299,999,432,.15943674E-2,.87407E-3,0
STARLINK-37456,2026-119E,2026-06-19T22:00:01.999584,15.49120398,.00016217,97.2859,196.7728,84.5291,215.3088,0,U,69300,999,432,.15912244E-2,.87207E-3,0
