KUIPER-00570            
1 69271U 26118E   26170.82165640 -.00001976  00000+0 -46605-4 0  9990
2 69271  51.8585  40.8156 0011269 193.8876 166.1801 15.34625283  4381
KUIPER-00572            
1 69272U 26118F   26170.86630709  .00012025  00000+0  33635-3 0  9991
2 69272  51.8674  40.3839 0007074 180.6803 179.4175 15.37062020  4396
KUIPER-00581            
1 69273U 26118G   26170.87088426  .00010952  00000+0  31085-3 0  9990
2 69273  51.8656  40.4109 0008760 184.2666 175.8247 15.36694476  4483
KUIPER-00584            
1 69274U 26118H   26170.82444625 -.00006611  00000+0 -18429-3 0  9999
2 69274  51.8614  40.8375 0010876 196.9304 163.1320 15.34339080  4383
KUIPER-00587            
1 69275U 26118J   26170.87015635  .00016150  00000+0  45230-3 0  9997
2 69275  51.8628  40.4031 0008121 187.0043 173.0831 15.36745956  4398
KUIPER-00590            
1 69276U 26118K   26170.91918261  .00013819  00000+0  37389-3 0  9995
2 69276  51.8691  39.9925 0004070 170.0481 190.0587 15.37973379  4403
KUIPER-00592            
1 69277U 26118L   26170.91634775  .00018803  00000+0  50164-3 0  9995
2 69277  51.8716  39.9743 0003449 144.3631 215.7587 15.38161317  4407
KUIPER-00593            
1 69278U 26118M   26170.91713983  .00018582  00000+0  49658-3 0  9995
2 69278  51.8720  39.9788 0003664 165.4907 194.6186 15.38117356  4461
KUIPER-00594            
1 69279U 26118N   26170.90795893  .00013962  00000+0  36866-3 0  9999
2 69279  51.8726  39.9179 0000880  85.7629 274.3459 15.38722313  4402
KUIPER-00595            
1 69280U 26118P   26170.91041376  .00014043  00000+0  37272-3 0  9995
2 69280  51.8719  39.9356 0001305 153.4438 206.6616 15.38557196  4438
KUIPER-00596            
1 69281U 26118Q   26170.82217576  .00016861  00000+0  50171-3 0  9996
2 69281  51.8561  40.8141 0012436 194.2941 165.7694 15.34767344  4385
KUIPER-00597            
1 69282U 26118R   26170.86460427  .00012338  00000+0  34462-3 0  9996
2 69282  51.8649  40.3708 0006966 181.5005 178.5962 15.37080831  4391
KUIPER-00599            
1 69283U 26118S   26170.92615736  .00020194  00000+0  55136-3 0  9999
2 69283  51.8694  40.0374 0005930 175.8772 184.2264 15.37386323  4401
KUIPER-00600            
1 69284U 26118T   26170.86942095  .00011780  00000+0  33327-3 0  9993
2 69284  51.8640  40.4007 0008574 182.1675 177.9276 15.36718626  4394
KUIPER-00601            
1 69285U 26118U   26170.92217282  .00006489  00000+0  18304-3 0  9992
2 69285  51.8709  40.0120 0004835 164.9435 195.1697 15.37665092  4401
KUIPER-00602            
1 69286U 26118V   26170.91532524  .00019198  00000+0  51048-3 0  9994
2 69286  51.8709  39.9680 0002761 156.6924 203.4189 15.38249988  4409
KUIPER-00603            
1 69287U 26118W   26170.92357727  .00017342  00000+0  47135-3 0  9997
2 69287  51.8677  40.0205 0005290 171.4692 188.6386 15.37638924  4401
KUIPER-00605            
1 69288U 26118X   26170.86522762  .00012854  00000+0  35830-3 0  9996
2 69288  51.8662  40.3758 0007402 177.2740 182.8288 15.37101280  4392
KUIPER-00606            
1 69289U 26118Y   26170.92079527  .00018011  00000+0  48730-3 0  9994
2 69289  51.8700  40.0030 0004597 164.5240 195.5889 15.37754559  4405
KUIPER-00607            
1 69290U 26118Z   26170.92498962  .00012831  00000+0  35324-3 0  9993
2 69290  51.8682  40.0297 0006005 172.0952 188.0131 15.37498408  4406
KUIPER-00608            
1 69291U 26118AA  26170.88034673  .00013178  00000+0  38906-3 0  9998
2 69291  51.8610  40.4650 0008312 185.4061 174.6836 15.35265300  4399
KUIPER-00610            
1 69292U 26118AB  26170.91315944  .00023714  00000+0  62756-3 0  9993
2 69292  51.8729  39.9512 0002065 157.8085 202.2992 15.38261301  4402
KUIPER-00613            
1 69293U 26118AC  26170.82099580 -.00000890  00000+0 -14949-4 0  9993
2 69293  51.8642  40.8201 0010017 191.8467 168.2284 15.34370265  4389
KUIPER-00618            
1 69294U 26118AD  26170.90847996  .00014510  00000+0  38286-3 0  9996
2 69294  51.8728  39.9196 0001582  98.9512 261.1654 15.38709905  4400
KUIPER-00620            
1 69295U 26118AE  26170.91243591  .00019433  00000+0  51445-3 0  9990
2 69295  51.8723  39.9473 0002630 130.0481 230.0737 15.38379028  4408
STARLINK-37501          
1 69296U 26119A   26170.91668981 -.00472480  00000+0 -91241-2 0  9990
2 69296  97.2855 196.7719 0002172  78.3570 219.3632 15.49473052  4327
STARLINK-37496          
1 69297U 26119B   26170.91668981 -.00887599  00000+0 -15719-1 0  9997
2 69297  97.2857 196.7769 0001398  67.6690 231.3124 15.52896731  4325
STARLINK-37519          
1 69298U 26119C   26170.91668981  .00093059  00000+0  16976-2 0  9993
2 69298  97.2856 196.7788 0001698  56.6867 257.0683 15.49102795  4324
STARLINK-37455          
1 69299U 26119D   26170.91668981  .00087407  00000+0  15944-2 0  9998
2 69299  97.2855 196.6892 0001653  90.0249  11.7232 15.49128383  4322
STARLINK-37456          
1 69300U 26119E   26170.91668981  .00087207  00000+0  15912-2 0  9994
2 69300  97.2859 196.7728 0001621  84.5291 215.3088 15.49120398  4327
